<?xml version="1.0" encoding="UTF-8"?>
<osm version="0.6" generator="Overpass API 0.7.56.9 76e5016d">
<note>The data included in this document is from www.openstreetmap.org. The data is made available under ODbL.</note>
<meta osm_base="2021-05-14T10:24:43Z" areas="2021-05-14T09:19:34Z"/>

  <node id="7843769198" lat="36.9757331" lon="15.1997272">
    <tag k="amenity" v="atm"/>
  </node>
  <node id="5962051185" lat="36.9660424" lon="15.2188093">
    <tag k="amenity" v="atm"/>
  </node>
  <node id="6296835321" lat="37.0827735" lon="15.2524758">
    <tag k="amenity" v="atm"/>
    <tag k="operator" v="Poste Italiane"/>
  </node>
  <node id="6369132843" lat="37.0701632" lon="15.2811349">
    <tag k="amenity" v="atm"/>
  </node>
  <node id="6193162918" lat="37.0795216" lon="15.2816311">
    <tag k="amenity" v="atm"/>
  </node>
  <node id="5706436949" lat="37.0616277" lon="15.2936491">
    <tag k="amenity" v="atm"/>
    <tag k="operator" v="Unicredit"/>
  </node>
  <node id="5828455405" lat="37.0598851" lon="15.2946458">
    <tag k="amenity" v="atm"/>
    <tag k="opening_hours" v="24/7"/>
  </node>
  <node id="6188902874" lat="37.0584639" lon="15.2947666">
    <tag k="amenity" v="atm"/>
  </node>
  <node id="6765817385" lat="37.0637328" lon="15.2935520">
    <tag k="amenity" v="atm"/>
  </node>
  <node id="8637398152" lat="37.0606988" lon="15.2942653">
    <tag k="amenity" v="atm"/>
  </node>
  <node id="6193165256" lat="37.0660100" lon="15.2868095">
    <tag k="amenity" v="atm"/>
  </node>
  <node id="6401593193" lat="37.0657688" lon="15.2884517">
    <tag k="amenity" v="atm"/>
  </node>
  <node id="6193164881" lat="37.0649228" lon="15.2899503">
    <tag k="amenity" v="atm"/>
  </node>
  <node id="6193163369" lat="37.0762193" lon="15.2839310">
    <tag k="amenity" v="atm"/>
  </node>
  <node id="6193163370" lat="37.0760243" lon="15.2841135">
    <tag k="amenity" v="atm"/>
  </node>
  <node id="6468784680" lat="37.0805073" lon="15.2963843">
    <tag k="amenity" v="atm"/>
  </node>
  <node id="8166248897" lat="37.0877184" lon="15.2724373">
    <tag k="amenity" v="atm"/>
  </node>
  <node id="6254818034" lat="37.0933104" lon="15.2702230">
    <tag k="amenity" v="atm"/>
  </node>
  <node id="8322426766" lat="37.0866482" lon="15.2882769">
    <tag k="amenity" v="atm"/>
    <tag k="currency:XBT" v="yes"/>
    <tag k="description" v="Bitcoin ATM che permette di acquistare Bitcoin, Ethereum, Litecoin, Dogecoin, Bitcoin Cash, Dash, Monero. L'ATM Ã¨ situato all'interno del negozio Smoking."/>
    <tag k="email" v="support@cryptolocalatm.com"/>
    <tag k="name" v="CryptoLocalATM c/o Smoking"/>
    <tag k="payment:bitcoin" v="yes"/>
    <tag k="website" v="https://cryptolocalatm.com"/>
  </node>
  <node id="8602988823" lat="37.0837329" lon="15.2877188">
    <tag k="amenity" v="atm"/>
    <tag k="operator" v="Credito Valtellinese"/>
  </node>

</osm>
