<?xml version="1.0" encoding="UTF-8"?>
<osm version="0.6" generator="Overpass API 0.7.56.9 76e5016d">
<note>The data included in this document is from www.openstreetmap.org. The data is made available under ODbL.</note>
<meta osm_base="2021-05-14T11:02:25Z" areas="2021-05-14T10:27:55Z"/>

  <node id="5178409421" lat="37.0751469" lon="15.2817320">
    <tag k="name" v="Presto Prestito"/>
    <tag k="shop" v="money_lender"/>
  </node>
  <node id="6219920314" lat="37.0825965" lon="15.2748621">
    <tag k="name" v="Dna Prestiti"/>
    <tag k="shop" v="money_lender"/>
  </node>
  <node id="6215252514" lat="37.0834135" lon="15.2787133">
    <tag k="name" v="Fiditalia"/>
    <tag k="shop" v="money_lender"/>
  </node>
  <node id="6215252532" lat="37.0799177" lon="15.2816135">
    <tag k="name" v="Agos"/>
    <tag k="shop" v="money_lender"/>
  </node>
  <node id="6219920390" lat="37.0792148" lon="15.2817199">
    <tag k="brand:wikidata" v="Q21190078"/>
    <tag k="brand:wikipedia" v="it:Compass (azienda)"/>
    <tag k="name" v="Compass"/>
    <tag k="shop" v="money_lender"/>
  </node>
  <node id="8280071694" lat="37.0823498" lon="15.2811751">
    <tag k="name" v="Deutsch Bank Easy"/>
    <tag k="shop" v="money_lender"/>
  </node>
  <node id="6193165244" lat="37.0661582" lon="15.2863876">
    <tag k="brand:wikidata" v="Q3745668"/>
    <tag k="brand:wikipedia" v="it:Findomestic"/>
    <tag k="name" v="Findomestic"/>
    <tag k="shop" v="money_lender"/>
  </node>
  <node id="6199350554" lat="37.0703554" lon="15.2832285">
    <tag k="name" v="Kiron"/>
    <tag k="shop" v="money_lender"/>
  </node>
  <node id="6397417177" lat="37.0662364" lon="15.2870803">
    <tag k="name" v="Credion"/>
    <tag k="shop" v="money_lender"/>
  </node>
  <node id="6585177807" lat="37.0702920" lon="15.2855773">
    <tag k="name" v="Fincontatto"/>
    <tag k="shop" v="money_lender"/>
  </node>
  <node id="7245671778" lat="37.0660357" lon="15.2878150">
    <tag k="name" v="Sella Personal Credit"/>
    <tag k="shop" v="money_lender"/>
  </node>
  <node id="6358723499" lat="37.0723393" lon="15.2862050">
    <tag k="name" v="Michele GarfÃ¬"/>
    <tag k="shop" v="money_lender"/>
  </node>
  <node id="6363338522" lat="37.0752632" lon="15.2835647">
    <tag k="name" v="Auxilia Finance"/>
    <tag k="shop" v="money_lender"/>
  </node>
  <node id="6462719120" lat="37.0709173" lon="15.2880996">
    <tag k="name" v="Punto Credito Cna"/>
    <tag k="shop" v="money_lender"/>
  </node>
  <node id="6238471804" lat="37.0785827" lon="15.2830479">
    <tag k="name" v="Il Prestito"/>
    <tag k="shop" v="money_lender"/>
  </node>
  <node id="6267091904" lat="37.0829742" lon="15.2867111">
    <tag k="name" v="Sirfidi"/>
    <tag k="shop" v="money_lender"/>
  </node>
  <node id="6468784793" lat="37.0807694" lon="15.2961656">
    <tag k="name" v="Vivi Banca"/>
    <tag k="shop" v="money_lender"/>
  </node>
  <node id="6219920367" lat="37.0845554" lon="15.2738300">
    <tag k="name" v="Credipass"/>
    <tag k="shop" v="money_lender"/>
  </node>
  <node id="6215252739" lat="37.0839761" lon="15.2798147">
    <tag k="name" v="Avvera"/>
    <tag k="shop" v="money_lender"/>
  </node>
  <node id="6283162643" lat="37.0846239" lon="15.2803753">
    <tag k="name" v="Squadra Credit"/>
    <tag k="shop" v="money_lender"/>
  </node>
  <node id="8367619612" lat="37.0844612" lon="15.2801019">
    <tag k="name" v="Pitagora"/>
    <tag k="shop" v="money_lender"/>
  </node>
  <node id="6283162282" lat="37.0862767" lon="15.2851590">
    <tag k="name" v="Bpp Sviluppo"/>
    <tag k="shop" v="money_lender"/>
  </node>
  <node id="6238471395" lat="37.0837026" lon="15.2920352">
    <tag k="name" v="Santander"/>
    <tag k="shop" v="money_lender"/>
  </node>
  <node id="6238471435" lat="37.0836976" lon="15.2914714">
    <tag k="name" v="Signor Prestito"/>
    <tag k="shop" v="money_lender"/>
  </node>

</osm>
