<?xml version="1.0" encoding="UTF-8"?>
<osm version="0.6" generator="Overpass API 0.7.56.9 76e5016d">
<note>The data included in this document is from www.openstreetmap.org. The data is made available under ODbL.</note>
<meta osm_base="2021-05-14T11:03:26Z" areas="2021-05-14T10:27:55Z"/>

  <node id="7157591084" lat="36.9759557" lon="15.1968991">
    <tag k="authorization" v="29"/>
    <tag k="name" v="Tabaccheria Tavana"/>
    <tag k="shop" v="tobacco"/>
  </node>
  <node id="7157591083" lat="36.9780218" lon="15.1997737">
    <tag k="authorization" v="80"/>
    <tag k="name" v="Tabaccheria Tavana"/>
    <tag k="shop" v="tobacco"/>
  </node>
  <node id="7159109139" lat="36.9637117" lon="15.2066817">
    <tag k="authorization" v="99"/>
    <tag k="name" v="Tabaccheria Mallia"/>
    <tag k="shop" v="tobacco"/>
  </node>
  <node id="7773186220" lat="36.9622069" lon="15.2059309">
    <tag k="authorization" v="104"/>
    <tag k="shop" v="tobacco"/>
  </node>
  <node id="7773186221" lat="36.9660103" lon="15.2187252">
    <tag k="authorization" v="88"/>
    <tag k="shop" v="tobacco"/>
  </node>
  <node id="7773186218" lat="37.0159355" lon="15.2753968">
    <tag k="authorization" v="112"/>
    <tag k="shop" v="tobacco"/>
  </node>
  <node id="7773186219" lat="37.0345135" lon="15.1614375">
    <tag k="authorization" v="111"/>
    <tag k="shop" v="tobacco"/>
  </node>
  <node id="7040655616" lat="37.0571768" lon="15.2931592">
    <tag k="authorization" v="20"/>
    <tag k="name" v="Tabaccheria Cannata"/>
    <tag k="shop" v="tobacco"/>
  </node>
  <node id="7773186217" lat="37.0624158" lon="15.2736798">
    <tag k="authorization" v="127"/>
    <tag k="shop" v="tobacco"/>
  </node>
  <node id="6369132883" lat="37.0691760" lon="15.2826771">
    <tag k="authorization" v="85"/>
    <tag k="name" v="Tabaccheria Bongiovanni"/>
    <tag k="shop" v="tobacco"/>
  </node>
  <node id="6369132826" lat="37.0704892" lon="15.2809433">
    <tag k="authorization" v="83"/>
    <tag k="name" v="Tabaccheria Zuccaro"/>
    <tag k="shop" v="tobacco"/>
  </node>
  <node id="6238471079" lat="37.0808875" lon="15.2766369">
    <tag k="authorization" v="84"/>
    <tag k="name" v="Tabaccheria Moscuzza"/>
    <tag k="shop" v="tobacco"/>
  </node>
  <node id="6193164818" lat="37.0617362" lon="15.2934017">
    <tag k="authorization" v="12"/>
    <tag k="name" v="Tabaccheria Sapienza"/>
    <tag k="shop" v="tobacco"/>
  </node>
  <node id="6585177800" lat="37.0600823" lon="15.2933023">
    <tag k="authorization" v="4"/>
    <tag k="name" v="Tabaccheria Scalora"/>
    <tag k="shop" v="tobacco"/>
  </node>
  <node id="6956220892" lat="37.0638464" lon="15.2921990">
    <tag k="authorization" v="2"/>
    <tag k="name" v="Tabaccheria Signorino"/>
    <tag k="shop" v="tobacco"/>
  </node>
  <node id="7157591086" lat="37.0598804" lon="15.2946799">
    <tag k="authorization" v="11"/>
    <tag k="name" v="Tabaccheria Di Fede"/>
    <tag k="shop" v="tobacco"/>
  </node>
  <node id="6193164356" lat="37.0677401" lon="15.2849282">
    <tag k="authorization" v="42"/>
    <tag k="name" v="Tabaccheria Piccione"/>
    <tag k="shop" v="tobacco"/>
  </node>
  <node id="6304754505" lat="37.0703098" lon="15.2857187">
    <tag k="authorization" v="87"/>
    <tag k="name" v="Tabaccheria Boveri"/>
    <tag k="shop" v="tobacco"/>
  </node>
  <node id="6304757152" lat="37.0687138" lon="15.2874649">
    <tag k="authorization" v="45"/>
    <tag k="name" v="Non Solo Fumo"/>
    <tag k="shop" v="tobacco"/>
  </node>
  <node id="6376317184" lat="37.0659553" lon="15.2871080">
    <tag k="authorization" v="36"/>
    <tag k="name" v="Tabaccheria Amenta"/>
    <tag k="shop" v="tobacco"/>
  </node>
  <node id="6376319025" lat="37.0652878" lon="15.2894664">
    <tag k="authorization" v="6"/>
    <tag k="name" v="Tabaccheria Rosano"/>
    <tag k="shop" v="tobacco"/>
  </node>
  <node id="6431988007" lat="37.0698814" lon="15.2902574">
    <tag k="authorization" v="9"/>
    <tag k="name" v="Tabaccheria Midolo"/>
    <tag k="shop" v="tobacco"/>
  </node>
  <node id="6956210179" lat="37.0646827" lon="15.2920152">
    <tag k="authorization" v="21"/>
    <tag k="name" v="Tabaccheria Armieri"/>
    <tag k="shop" v="tobacco"/>
  </node>
  <node id="7157591085" lat="37.0602141" lon="15.2962925">
    <tag k="authorization" v="18"/>
    <tag k="name" v="Tabaccheria Aprile"/>
    <tag k="shop" v="tobacco"/>
  </node>
  <node id="6219919040" lat="37.0723736" lon="15.2844180">
    <tag k="authorization" v="46"/>
    <tag k="name" v="Quo Vadis"/>
    <tag k="shop" v="tobacco"/>
  </node>
  <node id="6248470928" lat="37.0753172" lon="15.2887529">
    <tag k="authorization" v="44"/>
    <tag k="name" v="Tabaccheria Ferla"/>
    <tag k="shop" v="tobacco"/>
  </node>
  <node id="6361616015" lat="37.0720417" lon="15.2873804">
    <tag k="authorization" v="41"/>
    <tag k="name" v="Tabaccheria Di Stefano"/>
    <tag k="shop" v="tobacco"/>
  </node>
  <node id="6363338155" lat="37.0753526" lon="15.2838052">
    <tag k="authorization" v="67"/>
    <tag k="name" v="Tabaccheria Mezzio"/>
    <tag k="shop" v="tobacco"/>
  </node>
  <node id="6431988018" lat="37.0725219" lon="15.2897478">
    <tag k="authorization" v="34"/>
    <tag k="name" v="Tabaccheria Cassarino"/>
    <tag k="shop" v="tobacco"/>
  </node>
  <node id="6441756630" lat="37.0721068" lon="15.2909076">
    <tag k="authorization" v="28"/>
    <tag k="name" v="Tabaccheria Ligoli"/>
    <tag k="shop" v="tobacco"/>
  </node>
  <node id="6193163298" lat="37.0772164" lon="15.2833698">
    <tag k="authorization" v="47"/>
    <tag k="name" v="Tabacchi San Giovanni"/>
    <tag k="shop" v="tobacco"/>
  </node>
  <node id="6268536023" lat="37.0834562" lon="15.2930202">
    <tag k="authorization" v="51"/>
    <tag k="name" v="Tabaccheria Moncada"/>
    <tag k="shop" v="tobacco"/>
  </node>
  <node id="6467192484" lat="37.0780299" lon="15.2957080">
    <tag k="authorization" v="7"/>
    <tag k="name" v="Tabaccheria Agostini"/>
    <tag k="shop" v="tobacco"/>
  </node>
  <node id="6468784746" lat="37.0823443" lon="15.2966847">
    <tag k="authorization" v="52"/>
    <tag k="name" v="Tabaccheria Cordieri"/>
    <tag k="shop" v="tobacco"/>
  </node>
  <node id="6459446039" lat="37.0928669" lon="15.2081150">
    <tag k="authorization" v="16"/>
    <tag k="name" v="Tabaccheria Moncada"/>
    <tag k="shop" v="tobacco"/>
  </node>
  <node id="7157591087" lat="37.0842930" lon="15.2521522">
    <tag k="authorization" v="72"/>
    <tag k="name" v="Tabaccheria De Francisci"/>
    <tag k="shop" v="tobacco"/>
  </node>
  <node id="7115689246" lat="37.0976712" lon="15.2563794">
    <tag k="authorization" v="89"/>
    <tag k="name" v="Tabaccheria Tarascio"/>
    <tag k="shop" v="tobacco"/>
  </node>
  <node id="6204633602" lat="37.0939469" lon="15.2693795">
    <tag k="authorization" v="91"/>
    <tag k="name" v="Tabaccheria Inturrisi"/>
    <tag k="shop" v="tobacco"/>
  </node>
  <node id="6252667767" lat="37.0962376" lon="15.2732073">
    <tag k="authorization" v="92"/>
    <tag k="name" v="Tabaccheria Barreca"/>
    <tag k="shop" v="tobacco"/>
  </node>
  <node id="5153042623" lat="37.0925048" lon="15.2766816">
    <tag k="authorization" v="71"/>
    <tag k="name" v="Tabaccheria Terranova"/>
    <tag k="shop" v="tobacco"/>
  </node>
  <node id="6250780322" lat="37.0947581" lon="15.2771444">
    <tag k="authorization" v="1"/>
    <tag k="name" v="Tabaccheria Malandrino"/>
    <tag k="shop" v="tobacco"/>
  </node>
  <node id="6204634281" lat="37.1000991" lon="15.2664476">
    <tag k="authorization" v="38"/>
    <tag k="name" v="Tabaccheria Liistro"/>
    <tag k="shop" v="tobacco"/>
  </node>
  <node id="6248470971" lat="37.0997257" lon="15.2706137">
    <tag k="authorization" v="101"/>
    <tag k="name" v="Tabaccheria Gionfriddo"/>
    <tag k="shop" v="tobacco"/>
  </node>
  <node id="6283162396" lat="37.0861471" lon="15.2855046">
    <tag k="authorization" v="24"/>
    <tag k="name" v="Tabacchivo"/>
    <tag k="shop" v="tobacco"/>
  </node>
  <node id="6283162467" lat="37.0848179" lon="15.2831829">
    <tag k="authorization" v="33"/>
    <tag k="name" v="Tabaccheria Garofalo"/>
    <tag k="shop" v="tobacco"/>
  </node>
  <node id="6283162625" lat="37.0838601" lon="15.2843772">
    <tag k="authorization" v="49"/>
    <tag k="name" v="Tabaccheria Fortisi"/>
    <tag k="shop" v="tobacco"/>
  </node>
  <node id="6291853780" lat="37.0874736" lon="15.2867297">
    <tag k="authorization" v="27"/>
    <tag k="name" v="Tabaccheria Aripoli"/>
    <tag k="shop" v="tobacco"/>
  </node>
  <node id="6204633461" lat="37.0838309" lon="15.2897628">
    <tag k="authorization" v="93"/>
    <tag k="name" v="Tabaccheria Tisia"/>
    <tag k="shop" v="tobacco"/>
  </node>
  <node id="6291853273" lat="37.0852550" lon="15.2897790">
    <tag k="authorization" v="8"/>
    <tag k="name" v="Tabacchi Pitia"/>
    <tag k="shop" v="tobacco"/>
  </node>
  <node id="6415303534" lat="37.0897017" lon="15.2937756">
    <tag k="authorization" v="35"/>
    <tag k="name" v="Tabacchimania"/>
    <tag k="shop" v="tobacco"/>
  </node>
  <node id="6456670483" lat="37.0863493" lon="15.2942488">
    <tag k="authorization" v="70"/>
    <tag k="name" v="Tabaccheria La Pira"/>
    <tag k="shop" v="tobacco"/>
  </node>
  <node id="8232727357" lat="37.0872895" lon="15.2897184">
    <tag k="authorization" v="54"/>
    <tag k="name" v="Tabaccheria Zammitti"/>
    <tag k="shop" v="tobacco"/>
  </node>
  <way id="680228564">
    <center lat="37.0642412" lon="15.2922897"/>
    <nd ref="6369132614"/>
    <nd ref="6369132613"/>
    <nd ref="6369132612"/>
    <nd ref="6369132611"/>
    <nd ref="6369132610"/>
    <nd ref="6369132609"/>
    <nd ref="6369132614"/>
    <tag k="authorization" v="5"/>
    <tag k="building" v="kiosk"/>
    <tag k="name" v="Tabacchi Cristina"/>
    <tag k="shop" v="tobacco"/>
  </way>
  <way id="314206391">
    <center lat="37.0928153" lon="15.2101834"/>
    <nd ref="3974819574"/>
    <nd ref="6459447570"/>
    <nd ref="3202538667"/>
    <nd ref="6459447571"/>
    <nd ref="3202538713"/>
    <nd ref="3974819604"/>
    <nd ref="7251003773"/>
    <nd ref="3974819594"/>
    <nd ref="3974819574"/>
    <tag k="authorization" v="25"/>
    <tag k="building" v="yes"/>
    <tag k="name" v="Tabaccheria Di Natale"/>
    <tag k="shop" v="tobacco"/>
  </way>

</osm>
