<?xml version="1.0" encoding="UTF-8"?>
<osm version="0.6" generator="Overpass API 0.7.56.9 76e5016d">
<note>The data included in this document is from www.openstreetmap.org. The data is made available under ODbL.</note>
<meta osm_base="2021-07-30T09:33:13Z" areas="2021-07-30T08:52:34Z"/>

  <node id="5885367886" lat="36.9771946" lon="15.1988436">
    <tag k="amenity" v="bank"/>
    <tag k="atm" v="yes"/>
    <tag k="brand:wikidata" v="Q3633687"/>
    <tag k="brand:wikipedia" v="it:Banca Agricola Popolare di Ragusa"/>
    <tag k="name" v="Banca Agricola Popolare di Ragusa"/>
    <tag k="short_name" v="Bapr"/>
  </node>
  <node id="5003435303" lat="37.0757646" lon="15.2817843">
    <tag k="amenity" v="bank"/>
    <tag k="atm" v="yes"/>
    <tag k="brand:wikidata" v="Q3696881"/>
    <tag k="brand:wikipedia" v="it:Credito Emiliano"/>
    <tag k="name" v="Credito Emiliano"/>
    <tag k="short_name" v="Credem"/>
  </node>
  <node id="6193162910" lat="37.0793887" lon="15.2816919">
    <tag k="amenity" v="bank"/>
    <tag k="atm" v="yes"/>
    <tag k="brand:wikidata" v="Q3788438"/>
    <tag k="brand:wikipedia" v="it:Ibl Banca"/>
    <tag k="name" v="Ibl Banca"/>
  </node>
  <node id="6193162912" lat="37.0795076" lon="15.2816758">
    <tag k="amenity" v="bank"/>
    <tag k="atm" v="yes"/>
    <tag k="brand:wikidata" v="Q806167"/>
    <tag k="brand:wikipedia" v="it:Bper Banca"/>
    <tag k="name" v="Bper Banca"/>
  </node>
  <node id="6193162946" lat="37.0785929" lon="15.2817911">
    <tag k="amenity" v="bank"/>
    <tag k="atm" v="yes"/>
    <tag k="brand:wikidata" v="Q1343118"/>
    <tag k="brand:wikipedia" v="it:Intesa Sanpaolo"/>
    <tag k="name" v="Intesa Sanpaolo"/>
  </node>
  <node id="474499898" lat="37.0634688" lon="15.2919898">
    <tag k="amenity" v="bank"/>
    <tag k="atm" v="yes"/>
    <tag k="brand:wikidata" v="Q46730"/>
    <tag k="brand:wikipedia" v="it:Banca Monte dei Paschi di Siena"/>
    <tag k="name" v="Monte dei Paschi di Siena"/>
    <tag k="short_name" v="Mps"/>
  </node>
  <node id="2992689949" lat="37.0631769" lon="15.2921122">
    <tag k="amenity" v="bank"/>
    <tag k="atm" v="yes"/>
    <tag k="brand:wikidata" v="Q1343118"/>
    <tag k="brand:wikipedia" v="it:Intesa Sanpaolo"/>
    <tag k="name" v="Intesa Sanpaolo"/>
    <tag k="opening_hours" v="Mo-Fr 08:30-13:00, 14:15-16:55"/>
    <tag k="wheelchair" v="yes"/>
  </node>
  <node id="6193164834" lat="37.0615582" lon="15.2938347">
    <tag k="amenity" v="bank"/>
    <tag k="atm" v="yes"/>
    <tag k="brand" v="Banco di Sicilia"/>
    <tag k="brand:wikidata" v="Q45568"/>
    <tag k="brand:wikipedia" v="it:UniCredit"/>
    <tag k="name" v="Unicredit"/>
  </node>
  <node id="1080018290" lat="37.0658890" lon="15.2843401">
    <tag k="amenity" v="bank"/>
    <tag k="atm" v="yes"/>
    <tag k="brand:wikidata" v="Q1343118"/>
    <tag k="brand:wikipedia" v="it:Intesa Sanpaolo"/>
    <tag k="name" v="Intesa Sanpaolo"/>
  </node>
  <node id="6157639000" lat="37.0660367" lon="15.2868190">
    <tag k="amenity" v="bank"/>
    <tag k="atm" v="yes"/>
    <tag k="brand:wikidata" v="Q3633687"/>
    <tag k="brand:wikipedia" v="it:Banca Agricola Popolare di Ragusa"/>
    <tag k="name" v="Banca Agricola Popolare di Ragusa"/>
    <tag k="short_name" v="Bapr"/>
  </node>
  <node id="6193162911" lat="37.0652498" lon="15.2886553">
    <tag k="amenity" v="bank"/>
    <tag k="atm" v="yes"/>
    <tag k="brand:wikidata" v="Q2201225"/>
    <tag k="brand:wikipedia" v="it:Banca Nazionale del Lavoro"/>
    <tag k="name" v="Banca Nazionale del Lavoro"/>
    <tag k="short_name" v="Bnl"/>
  </node>
  <node id="6193163613" lat="37.0689516" lon="15.2846117">
    <tag k="amenity" v="bank"/>
    <tag k="atm" v="yes"/>
    <tag k="brand" v="Banco di Sicilia"/>
    <tag k="brand:wikidata" v="Q45568"/>
    <tag k="brand:wikipedia" v="it:UniCredit"/>
    <tag k="name" v="Unicredit"/>
  </node>
  <node id="6193164343" lat="37.0689161" lon="15.2835128">
    <tag k="amenity" v="bank"/>
    <tag k="atm" v="yes"/>
    <tag k="brand:wikidata" v="Q3696888"/>
    <tag k="brand:wikipedia" v="it:Credito Valtellinese"/>
    <tag k="name" v="Credito Valtellinese"/>
    <tag k="short_name" v="Creval"/>
  </node>
  <node id="6193165219" lat="37.0654937" lon="15.2857398">
    <tag k="amenity" v="bank"/>
    <tag k="atm" v="yes"/>
    <tag k="name" v="La Riscossa di Regalbuto"/>
    <tag k="official_name" v="Banca di Credito Cooperativo La Riscossa di Regalbuto"/>
  </node>
  <node id="6193165189" lat="37.0648102" lon="15.2898942">
    <tag k="amenity" v="bank"/>
    <tag k="atm" v="yes"/>
    <tag k="brand" v="Banco Popolare Siciliano"/>
    <tag k="brand:wikidata" v="Q27331643"/>
    <tag k="brand:wikipedia" v="it:Banco Bpm"/>
    <tag k="name" v="Banco Bpm"/>
  </node>
  <node id="5003435297" lat="37.0769552" lon="15.2833369">
    <tag k="amenity" v="bank"/>
    <tag k="atm" v="yes"/>
    <tag k="brand:wikidata" v="Q3633749"/>
    <tag k="brand:wikipedia" v="it:Banca Sella"/>
    <tag k="name" v="Banca Sella"/>
  </node>
  <node id="6193163381" lat="37.0762219" lon="15.2839700">
    <tag k="amenity" v="bank"/>
    <tag k="atm" v="yes"/>
    <tag k="brand:wikidata" v="Q806147"/>
    <tag k="brand:wikipedia" v="it:Fideuram - Intesa Sanpaolo Private Banking"/>
    <tag k="name" v="Fideuram"/>
    <tag k="official_name" v="Fideuram - Intesa Sanpaolo Private Banking"/>
  </node>
  <node id="6193162811" lat="37.0831522" lon="15.2864715">
    <tag k="amenity" v="bank"/>
    <tag k="atm" v="yes"/>
    <tag k="brand:wikidata" v="Q2201225"/>
    <tag k="brand:wikipedia" v="it:Banca Nazionale del Lavoro"/>
    <tag k="name" v="Banca Nazionale del Lavoro"/>
    <tag k="short_name" v="Bnl"/>
  </node>
  <node id="6193162962" lat="37.0781245" lon="15.2838664">
    <tag k="amenity" v="bank"/>
    <tag k="atm" v="yes"/>
    <tag k="brand" v="Banco di Sicilia"/>
    <tag k="brand:wikidata" v="Q45568"/>
    <tag k="brand:wikipedia" v="it:UniCredit"/>
    <tag k="name" v="Unicredit"/>
  </node>
  <node id="6193162554" lat="37.0929815" lon="15.2101544">
    <tag k="amenity" v="bank"/>
    <tag k="atm" v="yes"/>
    <tag k="brand:wikidata" v="Q3696888"/>
    <tag k="brand:wikipedia" v="it:Credito Valtellinese"/>
    <tag k="name" v="Credito Valtellinese"/>
    <tag k="short_name" v="Creval"/>
  </node>
  <node id="6193162566" lat="37.0877257" lon="15.2723821">
    <tag k="amenity" v="bank"/>
    <tag k="atm" v="yes"/>
    <tag k="name" v="Banca di Credito Cooperativo di Pachino"/>
    <tag k="short_name" v="Bcc Pachino"/>
  </node>
  <node id="5153042622" lat="37.0894120" lon="15.2780046">
    <tag k="amenity" v="bank"/>
    <tag k="atm" v="yes"/>
    <tag k="brand:wikidata" v="Q46730"/>
    <tag k="brand:wikipedia" v="it:Banca Monte dei Paschi di Siena"/>
    <tag k="name" v="Monte dei Paschi di Siena"/>
    <tag k="short_name" v="Mps"/>
  </node>
  <node id="5185978721" lat="37.0842773" lon="15.2801700">
    <tag k="amenity" v="bank"/>
    <tag k="atm" v="yes"/>
    <tag k="brand:wikidata" v="Q3633687"/>
    <tag k="brand:wikipedia" v="it:Banca Agricola Popolare di Ragusa"/>
    <tag k="name" v="Banca Agricola Popolare di Ragusa"/>
    <tag k="short_name" v="Bapr"/>
  </node>
  <node id="7011726096" lat="37.0836412" lon="15.2804103">
    <tag k="amenity" v="bank"/>
    <tag k="atm" v="yes"/>
    <tag k="brand:wikidata" v="Q806167"/>
    <tag k="brand:wikipedia" v="it:Bper Banca"/>
    <tag k="name" v="Bper Banca"/>
  </node>
  <node id="6193162856" lat="37.0933402" lon="15.2702492">
    <tag k="amenity" v="bank"/>
    <tag k="atm" v="yes"/>
    <tag k="brand" v="Banco di Sicilia"/>
    <tag k="brand:wikidata" v="Q45568"/>
    <tag k="brand:wikipedia" v="it:UniCredit"/>
    <tag k="name" v="Unicredit"/>
  </node>
  <node id="6193162569" lat="37.0860833" lon="15.2890167">
    <tag k="amenity" v="bank"/>
    <tag k="atm" v="yes"/>
    <tag k="brand" v="Banco di Sicilia"/>
    <tag k="brand:wikidata" v="Q45568"/>
    <tag k="brand:wikipedia" v="it:UniCredit"/>
    <tag k="name" v="Unicredit"/>
  </node>
  <way id="808195546">
    <center lat="37.0931582" lon="15.2074190"/>
    <nd ref="3203126927"/>
    <nd ref="7557462291"/>
    <nd ref="6193162547"/>
    <nd ref="6193162548"/>
    <nd ref="3203126929"/>
    <nd ref="3203121243"/>
    <nd ref="3974576162"/>
    <nd ref="7557462290"/>
    <nd ref="3203126891"/>
    <nd ref="3203126927"/>
    <tag k="amenity" v="bank"/>
    <tag k="atm" v="yes"/>
    <tag k="brand:wikidata" v="Q46730"/>
    <tag k="brand:wikipedia" v="it:Banca Monte dei Paschi di Siena"/>
    <tag k="name" v="Monte dei Paschi di Siena"/>
    <tag k="short_name" v="Mps"/>
  </way>

</osm>
